{
  "60517": {
    "name": "PlanetScope-60517",
    "line1": "1 60517U 24149BB  26060.77397874  .00020500  00000-0  56162-3 0  9995",
    "line2": "2 60517  97.3765 143.8690 0003246 327.0882  33.0160 15.37336451 85806",
    "meta": {
      "display_name": "PlanetScope-60517",
      "type": "optical",
      "swath_km": 8.0,
      "resolution_m": 4.0,
      "off_nadir_deg": 0,
      "altitude_km": 525.0,
      "priority": 10
    }
  },
  "60539": {
    "name": "ICEYE-60539",
    "line1": "1 60539U 24149BZ  26060.73349224  .00003962  00000-0  32953-3 0  9996",
    "line2": "2 60539  97.6849 139.1561 0002752  68.6271 291.5245 14.99262116 84012",
    "meta": {
      "display_name": "ICEYE-60539",
      "type": "sar",
      "swath_km": 5.0,
      "resolution_m": 1.0,
      "off_nadir_deg": 40,
      "altitude_km": 580.0,
      "priority": 10
    }
  },
  "60546": {
    "name": "ICEYE-60546",
    "line1": "1 60546U 24149CG  26060.77794209  .00004067  00000-0  33898-3 0  9991",
    "line2": "2 60546  97.6896 139.2585 0006240  78.3464 281.8459 14.99159129 84026",
    "meta": {
      "display_name": "ICEYE-60546",
      "type": "sar",
      "swath_km": 5.0,
      "resolution_m": 1.0,
      "off_nadir_deg": 40,
      "altitude_km": 580.0,
      "priority": 10
    }
  },
  "60548": {
    "name": "ICEYE-60548",
    "line1": "1 60548U 24149CJ  26060.77870401  .00005417  00000-0  42847-3 0  9996",
    "line2": "2 60548  97.7048 140.6848 0006186 143.2775 216.8874 15.01033202 84095",
    "meta": {
      "display_name": "ICEYE-60548",
      "type": "sar",
      "swath_km": 5.0,
      "resolution_m": 1.0,
      "off_nadir_deg": 40,
      "altitude_km": 580.0,
      "priority": 10
    }
  },
  "60549": {
    "name": "ICEYE-60549",
    "line1": "1 60549U 24149CK  26060.80785444  .00002951  00000-0  25803-3 0  9996",
    "line2": "2 60549  97.6873 139.0330 0005609  83.0642 277.1218 14.97506886 84002",
    "meta": {
      "display_name": "ICEYE-60549",
      "type": "sar",
      "swath_km": 5.0,
      "resolution_m": 1.0,
      "off_nadir_deg": 40,
      "altitude_km": 580.0,
      "priority": 10
    }
  },
  "62384": {
    "name": "ICEYE-62384",
    "line1": "1 62384U 24247H   26060.97567749  .00004325  00000-0  26276-3 0  9990",
    "line2": "2 62384  44.9970 209.3115 0001658 223.4422 136.6325 15.11912691 65944",
    "meta": {
      "display_name": "ICEYE-62384",
      "type": "sar",
      "swath_km": 5.0,
      "resolution_m": 1.0,
      "off_nadir_deg": 40,
      "altitude_km": 580.0,
      "priority": 10
    }
  },
  "62389": {
    "name": "ICEYE-62389",
    "line1": "1 62389U 24247N   26060.44100587  .00003906  00000-0  23752-3 0  9990",
    "line2": "2 62389  44.9949 212.0040 0001374 266.4807  93.5913 15.12102135 65862",
    "meta": {
      "display_name": "ICEYE-62389",
      "type": "sar",
      "swath_km": 5.0,
      "resolution_m": 1.0,
      "off_nadir_deg": 40,
      "altitude_km": 580.0,
      "priority": 10
    }
  },
  "62698": {
    "name": "ICEYE-62698",
    "line1": "1 62698U 25009CT  26060.75672891  .00003435  00000-0  34569-3 0  9991",
    "line2": "2 62698  97.7378 140.9997 0001153 110.7467 249.3875 14.91835625 61277",
    "meta": {
      "display_name": "ICEYE-62698",
      "type": "sar",
      "swath_km": 5.0,
      "resolution_m": 1.0,
      "off_nadir_deg": 40,
      "altitude_km": 580.0,
      "priority": 10
    }
  },
  "62700": {
    "name": "ICEYE-62700",
    "line1": "1 62700U 25009CV  26060.74563692  .00004127  00000-0  37306-3 0  9993",
    "line2": "2 62700  97.7127 141.8751 0001949  56.4813 303.6594 14.95992724 61343",
    "meta": {
      "display_name": "ICEYE-62700",
      "type": "sar",
      "swath_km": 5.0,
      "resolution_m": 1.0,
      "off_nadir_deg": 40,
      "altitude_km": 580.0,
      "priority": 10
    }
  },
  "62705": {
    "name": "ICEYE-62705",
    "line1": "1 62705U 25009DA  26060.79016578  .00004135  00000-0  32992-3 0  9994",
    "line2": "2 62705  97.8056 146.8473 0000931  69.3889 290.7434 15.00860668 61574",
    "meta": {
      "display_name": "ICEYE-62705",
      "type": "sar",
      "swath_km": 5.0,
      "resolution_m": 1.0,
      "off_nadir_deg": 40,
      "altitude_km": 580.0,
      "priority": 10
    }
  },
  "62707": {
    "name": "ICEYE-62707",
    "line1": "1 62707U 25009DC  26060.77707402  .00004680  00000-0  42969-3 0  9997",
    "line2": "2 62707  97.7128 141.6360 0002844 112.6428 247.5094 14.95315886 83889",
    "meta": {
      "display_name": "ICEYE-62707",
      "type": "sar",
      "swath_km": 5.0,
      "resolution_m": 1.0,
      "off_nadir_deg": 40,
      "altitude_km": 580.0,
      "priority": 10
    }
  },
  "63229": {
    "name": "SpaceEye-T",
    "line1": "1 63229U 25052V   26060.96511628  .00006715  00000-0  30235-3 0  9993",
    "line2": "2 63229  97.4088 315.2334 0005475 148.0955 212.0614 15.21385630 53530",
    "meta": {
      "display_name": "SpaceEye-T",
      "type": "optical",
      "swath_km": 12,
      "resolution_m": 0.25,
      "off_nadir_deg": 45,
      "altitude_km": 510,
      "priority": 1
    }
  },
  "66820": {
    "name": "KOMPSAT-7",
    "line1": "1 66820U 25279A   26060.87343844  .00003975  00000-0  31288-3 0  9991",
    "line2": "2 66820  97.6702  10.5539 0010565   9.0949 351.0464 15.01352522 13526",
    "meta": {
      "display_name": "KOMPSAT-7",
      "type": "optical",
      "swath_km": 15,
      "resolution_m": 0.3,
      "off_nadir_deg": 30,
      "altitude_km": 570,
      "priority": 2
    }
  }
}